{
    "links": {
        "self": "http://www.neowsapp.com/rest/v1/neo/3007932?api_key=iIulBulltgU6a56xZRHN4H3l9WmuAYTsLGpBGhQ2"
    },
    "id": "3007932",
    "neo_reference_id": "3007932",
    "name": "(1995 FG)",
    "designation": "1995 FG",
    "nasa_jpl_url": "http://ssd.jpl.nasa.gov/sbdb.cgi?sstr=3007932",
    "absolute_magnitude_h": 23.0,
    "estimated_diameter": {
        "kilometers": {
            "estimated_diameter_min": 0.0667659413,
            "estimated_diameter_max": 0.1492931834
        },
        "meters": {
            "estimated_diameter_min": 66.7659413495,
            "estimated_diameter_max": 149.2931834393
        },
        "miles": {
            "estimated_diameter_min": 0.0414864197,
            "estimated_diameter_max": 0.0927664547
        },
        "feet": {
            "estimated_diameter_min": 219.0483710172,
            "estimated_diameter_max": 489.807047955
        }
    },
    "is_potentially_hazardous_asteroid": false,
    "close_approach_data": [
        {
            "close_approach_date": "1990-05-05",
            "close_approach_date_full": "1990-May-05 23:04",
            "epoch_date_close_approach": 641948640000,
            "relative_velocity": {
                "kilometers_per_second": "3.7041860468",
                "kilometers_per_hour": "13335.0697684434",
                "miles_per_hour": "8285.8937680641"
            },
            "miss_distance": {
                "astronomical": "0.1974937804",
                "lunar": "76.8250805756",
                "kilometers": "29544648.886087748",
                "miles": "18358193.5370690024"
            },
            "orbiting_body": "Earth"
        },
        {
            "close_approach_date": "1995-05-03",
            "close_approach_date_full": "1995-May-03 20:05",
            "epoch_date_close_approach": 799531500000,
            "relative_velocity": {
                "kilometers_per_second": "3.1044890219",
                "kilometers_per_hour": "11176.1604788897",
                "miles_per_hour": "6944.431493119"
            },
            "miss_distance": {
                "astronomical": "0.1640228711",
                "lunar": "63.8048968579",
                "kilometers": "24537472.147844557",
                "miles": "15246878.1855346066"
            },
            "orbiting_body": "Earth"
        },
        {
            "close_approach_date": "2000-04-28",
            "close_approach_date_full": "2000-Apr-28 06:14",
            "epoch_date_close_approach": 956902440000,
            "relative_velocity": {
                "kilometers_per_second": "4.7647128973",
                "kilometers_per_hour": "17152.9664304264",
                "miles_per_hour": "10658.1862800613"
            },
            "miss_distance": {
                "astronomical": "0.2870146927",
                "lunar": "111.6487154603",
                "kilometers": "42936786.686624549",
                "miles": "26679682.0937708162"
            },
            "orbiting_body": "Earth"
        },
        {
            "close_approach_date": "2010-01-25",
            "close_approach_date_full": "2010-Jan-25 04:40",
            "epoch_date_close_approach": 1264394400000,
            "relative_velocity": {
                "kilometers_per_second": "9.7599008181",
                "kilometers_per_hour": "35135.6429450004",
                "miles_per_hour": "21831.9221399087"
            },
            "miss_distance": {
                "astronomical": "0.0998136018",
                "lunar": "38.8274911002",
                "kilometers": "14931902.226308166",
                "miles": "9278253.8050820508"
            },
            "orbiting_body": "Mars"
        }
    ],
    "orbital_data": {
        "orbit_id": "12",
        "orbit_determination_date": "2017-04-06 09:18:10",
        "first_observation_date": "1995-03-27",
        "last_observation_date": "1995-05-22",
        "data_arc_in_days": 56,
        "observations_used": 21,
        "orbit_uncertainty": "6",
        "minimum_orbit_intersection": ".152875",
        "jupiter_tisserand_invariant": "3.919",
        "epoch_osculation": "2459000.5",
        "eccentricity": ".3731183222657673",
        "semi_major_axis": "1.849554133189905",
        "inclination": "1.964844243733348",
        "ascending_node_longitude": "184.900968530096",
        "orbital_period": "918.7534801838971",
        "perihelion_distance": "1.159451598074372",
        "perihelion_argument": "37.00362868338275",
        "aphelion_distance": "2.539656668305437",
        "perihelion_time": "2459029.898508919751",
        "mean_anomaly": "348.480627894882",
        "mean_motion": ".3918352504394788",
        "equinox": "J2000",
        "orbit_class": {
            "orbit_class_type": "AMO",
            "orbit_class_description": "Near-Earth asteroid orbits similar to that of 1221 Amor",
            "orbit_class_range": "1.017 AU < q (perihelion) < 1.3 AU"
        }
    },
    "is_sentry_object": false
}